{"type": "FeatureCollection", "features": [ {"type": "Feature", "properties": {"norad_id": 34031, "name": "COSMOS 2251 DEB", "group": "cosmos-2251-debris", "lat": 45.77377686490131, "lon": -90.04662888517032, "alt_km": 690.673138683178, "timestamp": "2025-12-27T17:24:57.801188+00:00", "meta": {"OBJECT_NAME": "COSMOS 2251 DEB", "OBJECT_ID": "1993-036HS", "EPOCH": "2025-12-27T07:02:49.887744", "MEAN_MOTION": 14.59858256, "ECCENTRICITY": 0.0022774, "INCLINATION": 74.013, "RA_OF_ASC_NODE": 107.9083, "ARG_OF_PERICENTER": 227.7004, "MEAN_ANOMALY": 154.6555, "EPHEMERIS_TYPE": 0, "CLASSIFICATION_TYPE": "U", "NORAD_CAT_ID": 34031, "ELEMENT_SET_NO": 999, "REV_AT_EPOCH": 88778, "BSTAR": 0.0014485, "MEAN_MOTION_DOT": 6.932e-05, "MEAN_MOTION_DDOT": 0}, "tle": {"line1": "1 34031U 93036HS  25361.29363296  .00006932  00000+0  14485-2 0  9992", "line2": "2 34031  74.0130 107.9083 0022774 227.7004 154.6555 14.59858256887782"}}, "geometry": {"type": "Point", "coordinates": [-90.04662888517032, 45.77377686490131]}}, {"type": "Feature", "properties": {"norad_id": 34035, "name": "COSMOS 2251 DEB", "group": "cosmos-2251-debris", "lat": -54.27617745287305, "lon": 164.35893532399135, "alt_km": 720.7966661552964, "timestamp": "2025-12-27T17:24:57.801199+00:00", "meta": {"OBJECT_NAME": "COSMOS 2251 DEB", "OBJECT_ID": "1993-036HW", "EPOCH": "2025-12-27T08:45:51.062112", "MEAN_MOTION": 14.52140804, "ECCENTRICITY": 0.0045292, "INCLINATION": 74.0658, "RA_OF_ASC_NODE": 321.6315, "ARG_OF_PERICENTER": 320.4862, "MEAN_ANOMALY": 193.766, "EPHEMERIS_TYPE": 0, "CLASSIFICATION_TYPE": "U", "NORAD_CAT_ID": 34035, "ELEMENT_SET_NO": 999, "REV_AT_EPOCH": 88178, "BSTAR": 0.0020972, "MEAN_MOTION_DOT": 8.594e-05, "MEAN_MOTION_DDOT": 0}, "tle": {"line1": "1 34035U 93036HW  25361.36517433  .00008594  00000+0  20972-2 0  9992", "line2": "2 34035  74.0658 321.6315 0045292 320.4862 193.7660 14.52140804881788"}}, "geometry": {"type": "Point", "coordinates": [164.35893532399135, -54.27617745287305]}}, {"type": "Feature", "properties": {"norad_id": 34036, "name": "COSMOS 2251 DEB", "group": "cosmos-2251-debris", "lat": -34.74562385919048, "lon": 107.52579574052848, "alt_km": 590.859658457176, "timestamp": "2025-12-27T17:24:57.801209+00:00", "meta": {"OBJECT_NAME": "COSMOS 2251 DEB", "OBJECT_ID": "1993-036HX", "EPOCH": "2025-12-27T11:09:34.284096", "MEAN_MOTION": 14.96189883, "ECCENTRICITY": 0.000911, "INCLINATION": 74.0189, "RA_OF_ASC_NODE": 119.5183, "ARG_OF_PERICENTER": 143.5614, "MEAN_ANOMALY": 216.6193, "EPHEMERIS_TYPE": 0, "CLASSIFICATION_TYPE": "U", "NORAD_CAT_ID": 34036, "ELEMENT_SET_NO": 999, "REV_AT_EPOCH": 88790, "BSTAR": 0.004374, "MEAN_MOTION_DOT": 0.00049669, "MEAN_MOTION_DDOT": 0}, "tle": {"line1": "1 34036U 93036HX  25361.46498014  .00049669  00000+0  43740-2 0  9993", "line2": "2 34036  74.0189 119.5183 0009110 143.5614 216.6193 14.96189883887907"}}, "geometry": {"type": "Point", "coordinates": [107.52579574052848, -34.74562385919048]}}, {"type": "Feature", "properties": {"norad_id": 34037, "name": "COSMOS 2251 DEB", "group": "cosmos-2251-debris", "lat": -17.720547049119677, "lon": 17.771128485087885, "alt_km": 778.3418940772062, "timestamp": "2025-12-27T17:24:57.801220+00:00", "meta": {"OBJECT_NAME": "COSMOS 2251 DEB", "OBJECT_ID": "1993-036HY", "EPOCH": "2025-12-27T04:06:49.459392", "MEAN_MOTION": 14.34701761, "ECCENTRICITY": 0.00518291, "INCLINATION": 74.0508, "RA_OF_ASC_NODE": 24.0281, "ARG_OF_PERICENTER": 69.5269, "MEAN_ANOMALY": 291.1436, "EPHEMERIS_TYPE": 0, "CLASSIFICATION_TYPE": "U", "NORAD_CAT_ID": 34037, "ELEMENT_SET_NO": 999, "REV_AT_EPOCH": 87924, "BSTAR": 0.00049446524, "MEAN_MOTION_DOT": 1.396e-05, "MEAN_MOTION_DDOT": 0}, "tle": {"line1": "1 34037U 93036HY  25361.17140578  .00001396  00000+0  49447-3 0  9997", "line2": "2 34037  74.0508  24.0281 0051829  69.5269 291.1436 14.34701761879242"}}, "geometry": {"type": "Point", "coordinates": [17.771128485087885, -17.720547049119677]}}, {"type": "Feature", "properties": {"norad_id": 34040, "name": "COSMOS 2251 DEB", "group": "cosmos-2251-debris", "lat": -68.14848792039912, "lon": -93.04392805558315, "alt_km": 1032.3138867878815, "timestamp": "2025-12-27T17:24:57.801244+00:00", "meta": {"OBJECT_NAME": "COSMOS 2251 DEB", "OBJECT_ID": "1993-036JB", "EPOCH": "2025-12-27T03:52:14.862432", "MEAN_MOTION": 13.68401974, "ECCENTRICITY": 0.03435032, "INCLINATION": 73.9553, "RA_OF_ASC_NODE": 42.0324, "ARG_OF_PERICENTER": 352.4928, "MEAN_ANOMALY": 7.1115, "EPHEMERIS_TYPE": 0, "CLASSIFICATION_TYPE": "U", "NORAD_CAT_ID": 34040, "ELEMENT_SET_NO": 999, "REV_AT_EPOCH": 83797, "BSTAR": 0.00098962302, "MEAN_MOTION_DOT": 1.254e-05, "MEAN_MOTION_DDOT": 0}, "tle": {"line1": "1 34040U 93036JB  25361.16128313  .00001254  00000+0  98962-3 0  9992", "line2": "2 34040  73.9553  42.0324 0343503 352.4928   7.1115 13.68401974837973"}}, "geometry": {"type": "Point", "coordinates": [-93.04392805558315, -68.14848792039912]}}, {"type": "Feature", "properties": {"norad_id": 34045, "name": "COSMOS 2251 DEB", "group": "cosmos-2251-debris", "lat": -5.966385206538441, "lon": -78.30222342039038, "alt_km": 762.9146870667073, "timestamp": "2025-12-27T17:24:57.801257+00:00", "meta": {"OBJECT_NAME": "COSMOS 2251 DEB", "OBJECT_ID": "1993-036JG", "EPOCH": "2025-12-27T06:17:04.640064", "MEAN_MOTION": 14.34077221, "ECCENTRICITY": 0.0026272, "INCLINATION": 74.0395, "RA_OF_ASC_NODE": 284.26, "ARG_OF_PERICENTER": 3.8971, "MEAN_ANOMALY": 116.52, "EPHEMERIS_TYPE": 0, "CLASSIFICATION_TYPE": "U", "NORAD_CAT_ID": 34045, "ELEMENT_SET_NO": 999, "REV_AT_EPOCH": 88241, "BSTAR": 0.00011389, "MEAN_MOTION_DOT": 2.94e-06, "MEAN_MOTION_DDOT": 0}, "tle": {"line1": "1 34045U 93036JG  25361.26185926  .00000294  00000+0  11389-3 0  9992", "line2": "2 34045  74.0395 284.2600 0026272   3.8971 116.5200 14.34077221882414"}}, "geometry": {"type": "Point", "coordinates": [-78.30222342039038, -5.966385206538441]}}, {"type": "Feature", "properties": {"norad_id": 34046, "name": "COSMOS 2251 DEB", "group": "cosmos-2251-debris", "lat": -61.734884563296426, "lon": -49.66988595947813, "alt_km": 775.9118627380594, "timestamp": "2025-12-27T17:24:57.801268+00:00", "meta": {"OBJECT_NAME": "COSMOS 2251 DEB", "OBJECT_ID": "1993-036JH", "EPOCH": "2025-12-27T10:07:24.985344", "MEAN_MOTION": 14.46598761, "ECCENTRICITY": 0.007464, "INCLINATION": 74.0398, "RA_OF_ASC_NODE": 343.0563, "ARG_OF_PERICENTER": 62.1547, "MEAN_ANOMALY": 90.4619, "EPHEMERIS_TYPE": 0, "CLASSIFICATION_TYPE": "U", "NORAD_CAT_ID": 34046, "ELEMENT_SET_NO": 999, "REV_AT_EPOCH": 88038, "BSTAR": 0.0015222, "MEAN_MOTION_DOT": 5.661e-05, "MEAN_MOTION_DDOT": 0}, "tle": {"line1": "1 34046U 93036JH  25361.42181696  .00005661  00000+0  15222-2 0  9993", "line2": "2 34046  74.0398 343.0563 0074640  62.1547  90.4619 14.46598761880387"}}, "geometry": {"type": "Point", "coordinates": [-49.66988595947813, -61.734884563296426]}}, {"type": "Feature", "properties": {"norad_id": 34050, "name": "COSMOS 2251 DEB", "group": "cosmos-2251-debris", "lat": -24.08675977229451, "lon": -22.981576021408262, "alt_km": 855.1817801119842, "timestamp": "2025-12-27T17:24:57.801282+00:00", "meta": {"OBJECT_NAME": "COSMOS 2251 DEB", "OBJECT_ID": "1993-036JM", "EPOCH": "2025-12-27T09:29:39.401952", "MEAN_MOTION": 13.96217157, "ECCENTRICITY": 0.021491, "INCLINATION": 74.0884, "RA_OF_ASC_NODE": 344.9108, "ARG_OF_PERICENTER": 45.5016, "MEAN_ANOMALY": 73.3588, "EPHEMERIS_TYPE": 0, "CLASSIFICATION_TYPE": "U", "NORAD_CAT_ID": 34050, "ELEMENT_SET_NO": 999, "REV_AT_EPOCH": 85636, "BSTAR": 0.00096206, "MEAN_MOTION_DOT": 1.584e-05, "MEAN_MOTION_DDOT": 0}, "tle": {"line1": "1 34050U 93036JM  25361.39559493  .00001584  00000+0  96206-3 0  9990", "line2": "2 34050  74.0884 344.9108 0214910  45.5016  73.3588 13.96217157856366"}}, "geometry": {"type": "Point", "coordinates": [-22.981576021408262, -24.08675977229451]}}, {"type": "Feature", "properties": {"norad_id": 34053, "name": "COSMOS 2251 DEB", "group": "cosmos-2251-debris", "lat": -63.654964442767174, "lon": -177.80879687686814, "alt_km": 977.7744305197293, "timestamp": "2025-12-27T17:24:57.801293+00:00", "meta": {"OBJECT_NAME": "COSMOS 2251 DEB", "OBJECT_ID": "1993-036JQ", "EPOCH": "2025-12-26T15:02:38.951808", "MEAN_MOTION": 13.49181379, "ECCENTRICITY": 0.0422948, "INCLINATION": 73.8425, "RA_OF_ASC_NODE": 219.7929, "ARG_OF_PERICENTER": 6.0641, "MEAN_ANOMALY": 354.5355, "EPHEMERIS_TYPE": 0, "CLASSIFICATION_TYPE": "U", "NORAD_CAT_ID": 34053, "ELEMENT_SET_NO": 999, "REV_AT_EPOCH": 82871, "BSTAR": 0.00055816, "MEAN_MOTION_DOT": 5.87e-06, "MEAN_MOTION_DDOT": 0}, "tle": {"line1": "1 34053U 93036JQ  25360.62683972  .00000587  00000+0  55816-3 0  9992", "line2": "2 34053  73.8425 219.7929 0422948   6.0641 354.5355 13.49181379828713"}}, "geometry": {"type": "Point", "coordinates": [-177.80879687686814, -63.654964442767174]}}, {"type": "Feature", "properties": {"norad_id": 34056, "name": "COSMOS 2251 DEB", "group": "cosmos-2251-debris", "lat": -3.986165427958729, "lon": 48.43853115890644, "alt_km": 836.9287821997841, "timestamp": "2025-12-27T17:24:57.801303+00:00", "meta": {"OBJECT_NAME": "COSMOS 2251 DEB", "OBJECT_ID": "1993-036JT", "EPOCH": "2025-12-27T12:40:57.156384", "MEAN_MOTION": 14.20607263, "ECCENTRICITY": 0.0123643, "INCLINATION": 74.058, "RA_OF_ASC_NODE": 49.9324, "ARG_OF_PERICENTER": 93.8639, "MEAN_ANOMALY": 335.2424, "EPHEMERIS_TYPE": 0, "CLASSIFICATION_TYPE": "U", "NORAD_CAT_ID": 34056, "ELEMENT_SET_NO": 999, "REV_AT_EPOCH": 86621, "BSTAR": 0.00075072, "MEAN_MOTION_DOT": 1.721e-05, "MEAN_MOTION_DDOT": 0}, "tle": {"line1": "1 34056U 93036JT  25361.52843931  .00001721  00000+0  75072-3 0  9995", "line2": "2 34056  74.0580  49.9324 0123643  93.8639 335.2424 14.20607263866219"}}, "geometry": {"type": "Point", "coordinates": [48.43853115890644, -3.986165427958729]}}]}